{"spkid": "50750696", "covariance": {"data": [["2.318425472497225E-14", "-8.996765069658234E-15", "7.867438278718685E-13", "-1.127882234032397E-12", "1.117484946315249E-12", "3.534193815963444E-13"], ["-8.996765069658234E-15", "7.163609852731539E-15", "-7.795038104363101E-13", "1.232257959331242E-12", "-1.418084615332041E-12", "-2.121952789765317E-13"], ["7.867438278718685E-13", "-7.795038104363101E-13", "2.653091776793895E-10", "-1.77774228366295E-10", "3.237720155981501E-10", "4.153564256904895E-12"], ["-1.127882234032397E-12", "1.232257959331242E-12", "-1.77774228366295E-10", "1.757113749758329E-8", "-1.744524714877473E-8", "-3.097544259305622E-9"], ["1.117484946315249E-12", "-1.418084615332041E-12", "3.237720155981501E-10", "-1.744524714877473E-8", "1.743485890813407E-8", "3.056187404517367E-9"], ["3.534193815963444E-13", "-2.121952789765317E-13", "4.153564256904895E-12", "-3.097544259305622E-9", "3.056187404517367E-9", "6.074684464487086E-10"]], "elements": [{"label": "e", "name": "e", "sigma": 1.52263766947269e-07, "units": null, "title": "eccentricity", "value": ".5681741578690583"}, {"label": "q", "title": "perihelion distance", "value": ".8508523742937801", "units": "au", "name": "q", "sigma": 8.46381111127342e-08}, {"units": "TDB", "value": "2457599.675659323809", "title": "time of perihelion passage", "name": "tp", "sigma": 1.62883141447907e-05, "label": "tp"}, {"label": "node", "sigma": 0.000132556167331374, "name": "om", "title": "longitude of the ascending node", "value": "232.8734502280102", "units": "deg"}, {"label": "peri", "name": "w", "sigma": 0.000132041125821216, "units": "deg", "value": "59.12877363920814", "title": "argument of perihelion"}, {"label": "i", "units": "deg", "value": "9.402215350502408", "title": "inclination", "sigma": 2.46468749834276e-05, "name": "i"}], "labels": ["e", "q", "tp", "node", "peri", "i"], "epoch": "2457560.5"}, "elements": [{"name": "e", "sigma": "1.4476E-7", "units": null, "value": ".5678911338907018", "title": "eccentricity", "label": "e"}, {"sigma": "5.7221E-7", "name": "a", "value": "1.972180468988834", "title": "semi-major axis", "units": "au", "label": "a"}, {"name": "q", "sigma": "7.8957E-8", "units": "au", "value": ".8521966662176692", "title": "perihelion distance", "label": "q"}, {"label": "i", "value": "9.37768302580805", "title": "inclination; angle with respect to x-y ecliptic plane", "units": "deg", "sigma": "2.4635E-5", "name": "i"}, {"units": "deg", "title": "longitude of the ascending node", "value": "232.6313251779565", "sigma": ".00013289", "name": "om", "label": "node"}, {"label": "peri", "units": "deg", "value": "59.4610744357851", "title": "argument of perihelion", "sigma": ".00013228", "name": "w"}, {"label": "M", "sigma": ".00055672", "name": "ma", "units": "deg", "title": "mean anomaly", "value": "202.8650324353611"}, {"label": "tp", "name": "tp", "sigma": ".0017566", "units": "TDB", "value": "2461642.059005638053", "title": "time of perihelion passage"}, {"label": "period", "sigma": ".00044027", "name": "per", "title": "sidereal orbital period", "value": "1011.622330111271", "units": "d"}, {"label": "n", "title": "mean motion", "value": ".3558640307597824", "units": "deg/d", "sigma": "1.5488E-7", "name": "n"}, {"label": "Q", "name": "ad", "sigma": "8.9717E-7", "units": "au", "title": "aphelion distance", "value": "3.09216427176"}], "epoch": "2461200.5"}